[{"OBJECT_NAME":"STARLINK-3202","OBJECT_ID":"2021-115U","EPOCH":"2026-03-09T11:57:49.350240","MEAN_MOTION":15.08830345,"ECCENTRICITY":0.00014638,"INCLINATION":53.2174,"RA_OF_ASC_NODE":149.9773,"ARG_OF_PERICENTER":89.0826,"MEAN_ANOMALY":271.0333,"EPHEMERIS_TYPE":0,"CLASSIFICATION_TYPE":"U","NORAD_CAT_ID":49742,"ELEMENT_SET_NO":999,"REV_AT_EPOCH":23550,"BSTAR":3.4768454e-5,"MEAN_MOTION_DOT":2.65e-6,"MEAN_MOTION_DDOT":0},{"OBJECT_NAME":"JILIN-01 KUANFU 02B 4","OBJECT_ID":"2024-169D","EPOCH":"2026-03-09T23:04:43.463424","MEAN_MOTION":15.0922271,"ECCENTRICITY":0.00080501,"INCLINATION":97.5522,"RA_OF_ASC_NODE":159.355,"ARG_OF_PERICENTER":260.1533,"MEAN_ANOMALY":99.8787,"EPHEMERIS_TYPE":0,"CLASSIFICATION_TYPE":"U","NORAD_CAT_ID":61192,"ELEMENT_SET_NO":999,"REV_AT_EPOCH":8086,"BSTAR":0.00035789888,"MEAN_MOTION_DOT":5.634e-5,"MEAN_MOTION_DDOT":0}]
